[{"OBJECT_NAME":"YAOGAN-50 01","OBJECT_ID":"2026-006A","EPOCH":"2026-03-09T21:57:44.750592","MEAN_MOTION":13.83251108,"ECCENTRICITY":0.00011096,"INCLINATION":142.0346,"RA_OF_ASC_NODE":96.0351,"ARG_OF_PERICENTER":270.9545,"MEAN_ANOMALY":89.1047,"EPHEMERIS_TYPE":0,"CLASSIFICATION_TYPE":"U","NORAD_CAT_ID":67433,"ELEMENT_SET_NO":999,"REV_AT_EPOCH":768,"BSTAR":0.00014147475,"MEAN_MOTION_DOT":3.45e-6,"MEAN_MOTION_DDOT":0},{"OBJECT_NAME":"FENGYUN 1C DEB","OBJECT_ID":"1999-025LW","EPOCH":"2026-03-09T17:11:48.180768","MEAN_MOTION":14.10081775,"ECCENTRICITY":0.01325823,"INCLINATION":99.2972,"RA_OF_ASC_NODE":113.9972,"ARG_OF_PERICENTER":204.3511,"MEAN_ANOMALY":274.8807,"EPHEMERIS_TYPE":0,"CLASSIFICATION_TYPE":"U","NORAD_CAT_ID":29996,"ELEMENT_SET_NO":999,"REV_AT_EPOCH":97362,"BSTAR":0.0020225521,"MEAN_MOTION_DOT":3.832e-5,"MEAN_MOTION_DDOT":0}]
